[{"OBJECT_NAME":"KUIPER-00016","OBJECT_ID":"2025-088J","EPOCH":"2025-05-08T04:00:00.999936","MEAN_MOTION":15.34667649,"ECCENTRICITY":0.0009121,"INCLINATION":51.8636,"RA_OF_ASC_NODE":53.5354,"ARG_OF_PERICENTER":142.4411,"MEAN_ANOMALY":13.033,"EPHEMERIS_TYPE":0,"CLASSIFICATION_TYPE":"U","NORAD_CAT_ID":63732,"ELEMENT_SET_NO":999,"REV_AT_EPOCH":165,"BSTAR":0.0010298,"MEAN_MOTION_DOT":0.00034949,"MEAN_MOTION_DDOT":0},{"OBJECT_NAME":"KUIPER-00018","OBJECT_ID":"2025-088K","EPOCH":"2025-05-08T04:00:00.999936","MEAN_MOTION":15.35284781,"ECCENTRICITY":0.0006664,"INCLINATION":51.8692,"RA_OF_ASC_NODE":53.4916,"ARG_OF_PERICENTER":129.4623,"MEAN_ANOMALY":46.8121,"EPHEMERIS_TYPE":0,"CLASSIFICATION_TYPE":"U","NORAD_CAT_ID":63733,"ELEMENT_SET_NO":999,"REV_AT_EPOCH":165,"BSTAR":0.001047,"MEAN_MOTION_DOT":0.00036236,"MEAN_MOTION_DDOT":0},{"OBJECT_NAME":"KUIPER-00019","OBJECT_ID":"2025-088L","EPOCH":"2025-05-07T22:00:01.999584","MEAN_MOTION":15.35670595,"ECCENTRICITY":0.0004789,"INCLINATION":51.8699,"RA_OF_ASC_NODE":54.672,"ARG_OF_PERICENTER":125.8111,"MEAN_ANOMALY":119.1848,"EPHEMERIS_TYPE":0,"CLASSIFICATION_TYPE":"U","NORAD_CAT_ID":63734,"ELEMENT_SET_NO":999,"REV_AT_EPOCH":130,"BSTAR":-0.00042501,"MEAN_MOTION_DOT":-0.00015329,"MEAN_MOTION_DDOT":0},{"OBJECT_NAME":"KUIPER-00020","OBJECT_ID":"2025-088M","EPOCH":"2025-05-08T04:00:00.999936","MEAN_MOTION":15.35193156,"ECCENTRICITY":0.0006741,"INCLINATION":51.8702,"RA_OF_ASC_NODE":53.497,"ARG_OF_PERICENTER":135.4805,"MEAN_ANOMALY":37.8574,"EPHEMERIS_TYPE":0,"CLASSIFICATION_TYPE":"U","NORAD_CAT_ID":63735,"ELEMENT_SET_NO":999,"REV_AT_EPOCH":187,"BSTAR":0.001045,"MEAN_MOTION_DOT":0.00036059,"MEAN_MOTION_DDOT":0},{"OBJECT_NAME":"KUIPER-00021","OBJECT_ID":"2025-088N","EPOCH":"2025-05-07T22:00:01.999584","MEAN_MOTION":15.35026179,"ECCENTRICITY":0.000761,"INCLINATION":51.8657,"RA_OF_ASC_NODE":54.7151,"ARG_OF_PERICENTER":138.8276,"MEAN_ANOMALY":85.8646,"EPHEMERIS_TYPE":0,"CLASSIFICATION_TYPE":"U","NORAD_CAT_ID":63736,"ELEMENT_SET_NO":999,"REV_AT_EPOCH":166,"BSTAR":-0.00043727,"MEAN_MOTION_DOT":-0.00015455,"MEAN_MOTION_DDOT":0},{"OBJECT_NAME":"KUIPER-00023","OBJECT_ID":"2025-088P","EPOCH":"2025-05-08T04:00:00.999936","MEAN_MOTION":15.34926877,"ECCENTRICITY":0.000854,"INCLINATION":51.8669,"RA_OF_ASC_NODE":53.5181,"ARG_OF_PERICENTER":135.5113,"MEAN_ANOMALY":28.2958,"EPHEMERIS_TYPE":0,"CLASSIFICATION_TYPE":"U","NORAD_CAT_ID":63737,"ELEMENT_SET_NO":999,"REV_AT_EPOCH":200,"BSTAR":0.0010385,"MEAN_MOTION_DOT":0.00035539,"MEAN_MOTION_DDOT":0},{"OBJECT_NAME":"KUIPER-00024","OBJECT_ID":"2025-088Q","EPOCH":"2025-05-08T04:00:00.999936","MEAN_MOTION":15.3657669,"ECCENTRICITY":0.000173,"INCLINATION":51.8737,"RA_OF_ASC_NODE":53.3959,"ARG_OF_PERICENTER":94.4729,"MEAN_ANOMALY":124.6957,"EPHEMERIS_TYPE":0,"CLASSIFICATION_TYPE":"U","NORAD_CAT_ID":63738,"ELEMENT_SET_NO":999,"REV_AT_EPOCH":213,"BSTAR":0.0010311,"MEAN_MOTION_DOT":0.00037185,"MEAN_MOTION_DDOT":0},{"OBJECT_NAME":"KUIPER-00025","OBJECT_ID":"2025-088R","EPOCH":"2025-05-08T04:00:00.999936","MEAN_MOTION":15.35384363,"ECCENTRICITY":0.0006028,"INCLINATION":51.8682,"RA_OF_ASC_NODE":53.4859,"ARG_OF_PERICENTER":132.1536,"MEAN_ANOMALY":47.2915,"EPHEMERIS_TYPE":0,"CLASSIFICATION_TYPE":"U","NORAD_CAT_ID":63739,"ELEMENT_SET_NO":999,"REV_AT_EPOCH":199,"BSTAR":0.0010477,"MEAN_MOTION_DOT":0.00036373,"MEAN_MOTION_DDOT":0},{"OBJECT_NAME":"KUIPER-00027","OBJECT_ID":"2025-088S","EPOCH":"2025-05-07T22:00:01.999584","MEAN_MOTION":15.36189321,"ECCENTRICITY":0.0003342,"INCLINATION":51.8732,"RA_OF_ASC_NODE":54.63,"ARG_OF_PERICENTER":127.9955,"MEAN_ANOMALY":134.2677,"EPHEMERIS_TYPE":0,"CLASSIFICATION_TYPE":"U","NORAD_CAT_ID":63740,"ELEMENT_SET_NO":999,"REV_AT_EPOCH":168,"BSTAR":-0.00042503,"MEAN_MOTION_DOT":-0.00015579,"MEAN_MOTION_DDOT":0},{"OBJECT_NAME":"KUIPER-00028","OBJECT_ID":"2025-088T","EPOCH":"2025-05-07T22:00:01.999584","MEAN_MOTION":15.36383626,"ECCENTRICITY":0.0002595,"INCLINATION":51.8725,"RA_OF_ASC_NODE":54.6209,"ARG_OF_PERICENTER":125.0068,"MEAN_ANOMALY":143.301,"EPHEMERIS_TYPE":0,"CLASSIFICATION_TYPE":"U","NORAD_CAT_ID":63741,"ELEMENT_SET_NO":999,"REV_AT_EPOCH":209,"BSTAR":-0.0004276,"MEAN_MOTION_DOT":-0.00015765,"MEAN_MOTION_DDOT":0},{"OBJECT_NAME":"KUIPER-00029","OBJECT_ID":"2025-088U","EPOCH":"2025-05-08T04:00:00.999936","MEAN_MOTION":15.35518503,"ECCENTRICITY":0.0005583,"INCLINATION":51.8716,"RA_OF_ASC_NODE":53.4736,"ARG_OF_PERICENTER":129.5627,"MEAN_ANOMALY":54.4023,"EPHEMERIS_TYPE":0,"CLASSIFICATION_TYPE":"U","NORAD_CAT_ID":63742,"ELEMENT_SET_NO":999,"REV_AT_EPOCH":165,"BSTAR":0.001049,"MEAN_MOTION_DOT":0.00036575,"MEAN_MOTION_DDOT":0},{"OBJECT_NAME":"KUIPER-00030","OBJECT_ID":"2025-088V","EPOCH":"2025-05-08T04:00:00.999936","MEAN_MOTION":15.34823986,"ECCENTRICITY":0.000863,"INCLINATION":51.868,"RA_OF_ASC_NODE":53.5245,"ARG_OF_PERICENTER":140.2342,"MEAN_ANOMALY":20.3118,"EPHEMERIS_TYPE":0,"CLASSIFICATION_TYPE":"U","NORAD_CAT_ID":63743,"ELEMENT_SET_NO":999,"REV_AT_EPOCH":194,"BSTAR":0.001035,"MEAN_MOTION_DOT":0.00035301,"MEAN_MOTION_DDOT":0},{"OBJECT_NAME":"KUIPER-00031","OBJECT_ID":"2025-088W","EPOCH":"2025-05-07T22:00:01.999584","MEAN_MOTION":15.35949162,"ECCENTRICITY":0.0004504,"INCLINATION":51.8719,"RA_OF_ASC_NODE":54.6491,"ARG_OF_PERICENTER":123.3079,"MEAN_ANOMALY":131.4667,"EPHEMERIS_TYPE":0,"CLASSIFICATION_TYPE":"U","NORAD_CAT_ID":63744,"ELEMENT_SET_NO":999,"REV_AT_EPOCH":158,"BSTAR":-0.00042361,"MEAN_MOTION_DOT":-0.00015414,"MEAN_MOTION_DDOT":0},{"OBJECT_NAME":"KUIPER-00032","OBJECT_ID":"2025-088X","EPOCH":"2025-05-08T04:00:00.999936","MEAN_MOTION":15.35629478,"ECCENTRICITY":0.0005638,"INCLINATION":51.8708,"RA_OF_ASC_NODE":53.4651,"ARG_OF_PERICENTER":121.642,"MEAN_ANOMALY":67.016,"EPHEMERIS_TYPE":0,"CLASSIFICATION_TYPE":"U","NORAD_CAT_ID":63745,"ELEMENT_SET_NO":999,"REV_AT_EPOCH":266,"BSTAR":0.0010505,"MEAN_MOTION_DOT":0.0003676,"MEAN_MOTION_DDOT":0},{"OBJECT_NAME":"KUIPER-00033","OBJECT_ID":"2025-088Y","EPOCH":"2025-05-07T22:00:01.999584","MEAN_MOTION":15.36677829,"ECCENTRICITY":0.0001278,"INCLINATION":51.8733,"RA_OF_ASC_NODE":54.5987,"ARG_OF_PERICENTER":119.0957,"MEAN_ANOMALY":158.8067,"EPHEMERIS_TYPE":0,"CLASSIFICATION_TYPE":"U","NORAD_CAT_ID":63746,"ELEMENT_SET_NO":999,"REV_AT_EPOCH":210,"BSTAR":-0.00043354,"MEAN_MOTION_DOT":-0.00016125,"MEAN_MOTION_DDOT":0},{"OBJECT_NAME":"KUIPER-00034","OBJECT_ID":"2025-088Z","EPOCH":"2025-05-07T22:00:01.999584","MEAN_MOTION":15.36498657,"ECCENTRICITY":0.0002069,"INCLINATION":51.8736,"RA_OF_ASC_NODE":54.6066,"ARG_OF_PERICENTER":121.3883,"MEAN_ANOMALY":150.7038,"EPHEMERIS_TYPE":0,"CLASSIFICATION_TYPE":"U","NORAD_CAT_ID":63747,"ELEMENT_SET_NO":999,"REV_AT_EPOCH":178,"BSTAR":-0.00042944,"MEAN_MOTION_DOT":-0.00015888,"MEAN_MOTION_DDOT":0},{"OBJECT_NAME":"KUIPER-00035","OBJECT_ID":"2025-088AA","EPOCH":"2025-05-07T22:00:01.999584","MEAN_MOTION":15.36052705,"ECCENTRICITY":0.0003884,"INCLINATION":51.8713,"RA_OF_ASC_NODE":54.6438,"ARG_OF_PERICENTER":128.9822,"MEAN_ANOMALY":129.0857,"EPHEMERIS_TYPE":0,"CLASSIFICATION_TYPE":"U","NORAD_CAT_ID":63748,"ELEMENT_SET_NO":999,"REV_AT_EPOCH":183,"BSTAR":-0.00042406,"MEAN_MOTION_DOT":-0.00015479,"MEAN_MOTION_DDOT":0}]
